NORAD_CAT_ID,OBJECT_NAME,OBJECT_TYPE,EPOCH,MEAN_MOTION,ECCENTRICITY,INCLINATION,RA_OF_ASC_NODE,ARG_OF_PERICENTER,MEAN_ANOMALY,BSTAR,MEAN_MOTION_DOT,MEAN_MOTION_DDOT,TLE_LINE0,TLE_LINE1,TLE_LINE2,SEMIMAJOR_AXIS,PERIOD,APOGEE,PERIGEE,DECAYED
53853.0,STARLINK-4794,PAYLOAD,2024-08-12 07:22:02,15.0882608,0.000295,53.2181,352.3183,290.2811,69.7864,-5.3827e-05,-1.145e-05,0.0,0 STARLINK-4794,1 53853U 22114AM  24225.30697405 -.00001145  00000-0 -53827-4 0  9995,2 53853  53.2181 352.3183 0002950 290.2811  69.7864 15.08826080105723,6917.923,95.438,541.829,537.747,0.0
53853.0,STARLINK-4794,PAYLOAD,2024-08-12 15:18:57,15.08834027,9.54e-05,53.2183,350.8338,333.159,26.9352,2.6489e-06,-2.46e-06,0.0,0 STARLINK-4794,1 53853U 22114AM  24225.63817034 -.00000246  00000-0  26489-5 0  9998,2 53853  53.2183 350.8338 0000954 333.1590  26.9352 15.08834027106316,6917.899,95.438,540.424,539.104,0.0
53853.0,STARLINK-4794,PAYLOAD,2024-08-12 18:29:44,15.08836114,0.0001727,53.2173,350.2398,76.8407,283.2778,4.6007e-06,-2.15e-06,0.0,0 STARLINK-4794,1 53853U 22114AM  24225.77064960 -.00000215  00000-0  46007-5 0  9999,2 53853  53.2173 350.2398 0001727  76.8407 283.2778 15.08836114105792,6917.892,95.438,540.952,538.563,0.0
53853.0,STARLINK-4794,PAYLOAD,2024-08-13 00:51:15,15.08867172,9.8e-05,53.2195,349.0499,59.0874,301.0214,0.0007751,0.00012078,0.0,0 STARLINK-4794,1 53853U 22114AM  24226.03559703  .00012078  00000-0  77510-3 0  9993,2 53853  53.2195 349.0499 0000980  59.0874 301.0214 15.08867172105832,6917.797,95.436,540.34,538.984,0.0
53853.0,STARLINK-4794,PAYLOAD,2024-08-13 08:48:13,15.0878494,0.000174,53.2117,347.5627,82.2082,277.9108,-0.00095335,-0.00015406,0.0,0 STARLINK-4794,1 53853U 22114AM  24226.36682734 -.00015406  00000-0 -95335-3 0  9995,2 53853  53.2117 347.5627 0001740  82.2082 277.9108 15.08784940105885,6918.049,95.441,541.117,538.71,0.0
53853.0,STARLINK-4794,PAYLOAD,2024-08-14 00:42:05,15.08814266,5.59e-05,53.2116,344.5857,22.0379,338.0637,-2.4837e-05,-6.82e-06,0.0,0 STARLINK-4794,1 53853U 22114AM  24227.02923298 -.00000682  00000-0 -24837-4 0  9992,2 53853  53.2116 344.5857 0000559  22.0379 338.0637 15.08814266105986,6917.959,95.439,540.211,539.437,0.0
53853.0,STARLINK-4794,PAYLOAD,2024-08-14 13:25:10,15.08860196,0.0001539,53.2178,342.2118,98.3838,261.7329,0.0012153,0.00019117,0.0,0 STARLINK-4794,1 53853U 22114AM  24227.55914664  .00019117  00000-0  12153-2 0  9994,2 53853  53.2178 342.2118 0001539  98.3838 261.7329 15.08860196106067,6917.819,95.436,540.748,538.619,0.0
53853.0,STARLINK-4794,PAYLOAD,2024-08-15 00:32:51,15.08883739,0.0001541,53.219,340.1315,94.953,265.1638,0.0011054,0.00017369,0.0,0 STARLINK-4794,1 53853U 22114AM  24228.02281496  .00017369  00000-0  11054-2 0  9993,2 53853  53.2190 340.1315 0001541  94.9530 265.1638 15.08883739106677,6917.747,95.435,540.678,538.546,0.0
53853.0,STARLINK-4794,PAYLOAD,2024-08-16 00:23:37,15.08844538,5.37e-05,53.2162,335.669,225.2832,134.8116,-0.00031509,-5.299e-05,0.0,0 STARLINK-4794,1 53853U 22114AM  24229.01640424 -.00005299  00000-0 -31509-3 0  9992,2 53853  53.2162 335.6690 0000537 225.2832 134.8116 15.08844538106283,6917.867,95.437,540.103,539.36,0.0
53853.0,STARLINK-4794,PAYLOAD,2024-08-17 06:35:58,15.08833486,2.02e-05,53.2186,330.019,134.822,225.2789,0.00015848,2.235e-05,0.0,0 STARLINK-4794,1 53853U 22114AM  24230.27497846  .00002235  00000-0  15848-3 0  9993,2 53853  53.2186 330.0190 0000202 134.8220 225.2789 15.08833486106470,6917.9,95.438,539.905,539.626,0.0
53853.0,STARLINK-4794,PAYLOAD,2024-08-18 11:12:54,15.08848941,0.0001945,53.2187,324.6684,85.7074,274.414,0.00028134,4.193e-05,0.0,0 STARLINK-4794,1 53853U 22114AM  24231.46729883  .00004193  00000-0  28134-3 0  9991,2 53853  53.2187 324.6684 0001945  85.7074 274.4140 15.08848941106653,6917.853,95.437,541.064,538.373,0.0
53853.0,STARLINK-4794,PAYLOAD,2024-08-18 15:59:05,15.08790007,0.0001294,53.2171,323.774,63.3296,296.7829,0.0034127,0.0005437,0.0,0 STARLINK-4794,1 53853U 22114AM  24231.66603431  .00054370  00000-0  34127-2 0  9993,2 53853  53.2171 323.7740 0001294  63.3296 296.7829 15.08790007106687,6918.033,95.441,540.793,539.003,0.0
53853.0,STARLINK-4794,PAYLOAD,2024-08-19 09:28:18,15.08825063,0.0001267,53.2171,320.5022,103.4221,256.6912,-0.00017233,-3.028e-05,0.0,0 STARLINK-4794,1 53853U 22114AM  24232.39466311 -.00003028  00000-0 -17233-3 0  9994,2 53853  53.2171 320.5022 0001267 103.4221 256.6912 15.08825063106790,6917.926,95.438,540.668,538.915,0.0
53853.0,STARLINK-4794,PAYLOAD,2024-08-20 12:29:51,15.08846775,0.0001454,53.2175,315.4479,107.4196,252.6955,0.00032493,4.888e-05,0.0,0 STARLINK-4794,1 53853U 22114AM  24233.52073789  .00004888  00000-0  32493-3 0  9991,2 53853  53.2175 315.4479 0001454 107.4196 252.6955 15.08846775106961,6917.86,95.437,540.731,538.719,0.0
53853.0,STARLINK-4794,PAYLOAD,2024-08-21 04:23:43,15.088493,0.0001637,53.2181,312.4802,113.3095,246.8069,0.00047704,7.314e-05,0.0,0 STARLINK-4794,1 53853U 22114AM  24234.18314003  .00007314  00000-0  47704-3 0  9999,2 53853  53.2181 312.4802 0001637 113.3095 246.8069 15.08849300107062,6917.852,95.437,540.849,538.585,0.0
53853.0,STARLINK-4794,PAYLOAD,2024-08-21 10:45:16,15.08829871,0.0001441,53.2173,311.2861,107.7532,252.3618,6.3581e-05,7.24e-06,0.0,0 STARLINK-4794,1 53853U 22114AM  24234.44810732  .00000724  00000-0  63581-4 0  9998,2 53853  53.2173 311.2861 0001441 107.7532 252.3618 15.08829871107109,6917.911,95.438,540.773,538.779,0.0
